{
  "type": "FeatureCollection",
  "features": [
    {
      "type": "Feature",
      "properties": {
        "norad_id": 31017,
        "name": "FENGYUN 1C DEB",
        "group": "fengyun-1c-debris",
        "lat": 34.73803950959683,
        "lon": -18.93165669971401,
        "alt_km": 856.080702289587,
        "timestamp": "2025-12-27T13:34:49.575270+00:00",
        "meta_object_name": "FENGYUN 1C DEB",
        "meta_object_id": "1999-025BDK",
        "meta_epoch": "2025-12-26T22:20:11.883840",
        "meta_mean_motion": 14.0884486,
        "meta_eccentricity": 0.0112532,
        "meta_inclination": 98.6808,
        "meta_ra_of_asc_node": 346.5377,
        "meta_arg_of_pericenter": 309.8868,
        "meta_mean_anomaly": 104.4902,
        "meta_ephemeris_type": 0,
        "meta_classification_type": "U",
        "meta_norad_cat_id": 31017,
        "meta_element_set_no": 999,
        "meta_rev_at_epoch": 96496,
        "meta_bstar": 0.00044182,
        "meta_mean_motion_dot": 7.66e-06,
        "meta_mean_motion_ddot": 0,
        "tle_line1": "1 31017U 99025BDK 25360.93069310  .00000766  00000+0  44182-3 0  9994",
        "tle_line2": "2 31017  98.6808 346.5377 0112532 309.8868 104.4902 14.08844860964961"
      },
      "geometry": {
        "type": "Point",
        "coordinates": [
          -18.93165669971401,
          34.73803950959683
        ]
      }
    },
    {
      "type": "Feature",
      "properties": {
        "norad_id": 31018,
        "name": "FENGYUN 1C DEB",
        "group": "fengyun-1c-debris",
        "lat": -29.553416306214494,
        "lon": 93.72254398807672,
        "alt_km": 858.26471692628,
        "timestamp": "2025-12-27T13:34:49.575280+00:00",
        "meta_object_name": "FENGYUN 1C DEB",
        "meta_object_id": "1999-025BDL",
        "meta_epoch": "2025-12-27T05:14:54.848832",
        "meta_mean_motion": 14.17014706,
        "meta_eccentricity": 0.00580627,
        "meta_inclination": 99.0239,
        "meta_ra_of_asc_node": 88.2008,
        "meta_arg_of_pericenter": 85.3107,
        "meta_mean_anomaly": 275.4695,
        "meta_ephemeris_type": 0,
        "meta_classification_type": "U",
        "meta_norad_cat_id": 31018,
        "meta_element_set_no": 999,
        "meta_rev_at_epoch": 96260,
        "meta_bstar": 0.0016498091,
        "meta_mean_motion_dot": 3.327e-05,
        "meta_mean_motion_ddot": 0,
        "tle_line1": "1 31018U 99025BDL 25361.21869038  .00003327  00000+0  16498-2 0  9996",
        "tle_line2": "2 31018  99.0239  88.2008 0058062  85.3107 275.4695 14.17014706962600"
      },
      "geometry": {
        "type": "Point",
        "coordinates": [
          93.72254398807672,
          -29.553416306214494
        ]
      }
    },
    {
      "type": "Feature",
      "properties": {
        "norad_id": 31019,
        "name": "FENGYUN 1C DEB",
        "group": "fengyun-1c-debris",
        "lat": 75.9418761320454,
        "lon": 52.16087120679957,
        "alt_km": 2545.43726757897,
        "timestamp": "2025-12-27T13:34:49.575290+00:00",
        "meta_object_name": "FENGYUN 1C DEB",
        "meta_object_id": "1999-025BDM",
        "meta_epoch": "2025-12-21T19:04:30.482400",
        "meta_mean_motion": 11.82992381,
        "meta_eccentricity": 0.11182228,
        "meta_inclination": 98.7026,
        "meta_ra_of_asc_node": 190.6549,
        "meta_arg_of_pericenter": 266.0498,
        "meta_mean_anomaly": 114.5316,
        "meta_ephemeris_type": 0,
        "meta_classification_type": "U",
        "meta_norad_cat_id": 31019,
        "meta_element_set_no": 999,
        "meta_rev_at_epoch": 55288,
        "meta_bstar": 0.0023777333,
        "meta_mean_motion_dot": 8.64e-06,
        "meta_mean_motion_ddot": 0,
        "tle_line1": "1 31019U 99025BDM 25355.79479725  .00000864  00000+0  23777-2 0  9994",
        "tle_line2": "2 31019  98.7026 190.6549 1118222 266.0498 114.5316 11.82992381552887"
      },
      "geometry": {
        "type": "Point",
        "coordinates": [
          52.16087120679957,
          75.9418761320454
        ]
      }
    },
    {
      "type": "Feature",
      "properties": {
        "norad_id": 31021,
        "name": "FENGYUN 1C DEB",
        "group": "fengyun-1c-debris",
        "lat": -8.126665870438467,
        "lon": 113.73804193519094,
        "alt_km": 820.441165174987,
        "timestamp": "2025-12-27T13:34:49.575300+00:00",
        "meta_object_name": "FENGYUN 1C DEB",
        "meta_object_id": "1999-025BDP",
        "meta_epoch": "2025-12-25T01:23:52.741248",
        "meta_mean_motion": 14.75458372,
        "meta_eccentricity": 0.02681902,
        "meta_inclination": 98.3478,
        "meta_ra_of_asc_node": 109.946,
        "meta_arg_of_pericenter": 202.566,
        "meta_mean_anomaly": 156.3576,
        "meta_ephemeris_type": 0,
        "meta_classification_type": "U",
        "meta_norad_cat_id": 31021,
        "meta_element_set_no": 999,
        "meta_rev_at_epoch": 73614,
        "meta_bstar": 0.00093996638,
        "meta_mean_motion_dot": 0.00011493,
        "meta_mean_motion_ddot": 0,
        "tle_line1": "1 31021U 99025BDP 25359.05824932  .00011493  00000+0  93997-3 0  9996",
        "tle_line2": "2 31021  98.3478 109.9460 0268190 202.5660 156.3576 14.75458372736144"
      },
      "geometry": {
        "type": "Point",
        "coordinates": [
          113.73804193519094,
          -8.126665870438467
        ]
      }
    },
    {
      "type": "Feature",
      "properties": {
        "norad_id": 31022,
        "name": "FENGYUN 1C DEB",
        "group": "fengyun-1c-debris",
        "lat": 35.65269310087363,
        "lon": -121.33950295365067,
        "alt_km": 867.9324956786459,
        "timestamp": "2025-12-27T13:34:49.575310+00:00",
        "meta_object_name": "FENGYUN 1C DEB",
        "meta_object_id": "1999-025BDQ",
        "meta_epoch": "2025-12-23T23:03:36.550080",
        "meta_mean_motion": 13.90460502,
        "meta_eccentricity": 0.0110336,
        "meta_inclination": 99.5163,
        "meta_ra_of_asc_node": 241.8824,
        "meta_arg_of_pericenter": 91.8783,
        "meta_mean_anomaly": 269.5015,
        "meta_ephemeris_type": 0,
        "meta_classification_type": "U",
        "meta_norad_cat_id": 31022,
        "meta_element_set_no": 999,
        "meta_rev_at_epoch": 62164,
        "meta_bstar": 0.00047398,
        "meta_mean_motion_dot": 5.73e-06,
        "meta_mean_motion_ddot": 0,
        "tle_line1": "1 31022U 99025BDQ 25357.96083970  .00000573  00000+0  47398-3 0  9995",
        "tle_line2": "2 31022  99.5163 241.8824 0110336  91.8783 269.5015 13.90460502621649"
      },
      "geometry": {
        "type": "Point",
        "coordinates": [
          -121.33950295365067,
          35.65269310087363
        ]
      }
    },
    {
      "type": "Feature",
      "properties": {
        "norad_id": 31023,
        "name": "FENGYUN 1C DEB",
        "group": "fengyun-1c-debris",
        "lat": -80.36147744493462,
        "lon": 52.660977557326206,
        "alt_km": 881.9284117265133,
        "timestamp": "2025-12-27T13:34:49.575340+00:00",
        "meta_object_name": "FENGYUN 1C DEB",
        "meta_object_id": "1999-025BDR",
        "meta_epoch": "2025-12-20T19:49:13.315584",
        "meta_mean_motion": 14.06693358,
        "meta_eccentricity": 0.00824044,
        "meta_inclination": 98.8149,
        "meta_ra_of_asc_node": 340.0727,
        "meta_arg_of_pericenter": 198.6079,
        "meta_mean_anomaly": 161.2072,
        "meta_ephemeris_type": 0,
        "meta_classification_type": "U",
        "meta_norad_cat_id": 31023,
        "meta_element_set_no": 999,
        "meta_rev_at_epoch": 69615,
        "meta_bstar": 0.00023624773,
        "meta_mean_motion_dot": 3.61e-06,
        "meta_mean_motion_ddot": 0,
        "tle_line1": "1 31023U 99025BDR 25354.82584856  .00000361  00000+0  23625-3 0  9999",
        "tle_line2": "2 31023  98.8149 340.0727 0082404 198.6079 161.2072 14.06693358696152"
      },
      "geometry": {
        "type": "Point",
        "coordinates": [
          52.660977557326206,
          -80.36147744493462
        ]
      }
    },
    {
      "type": "Feature",
      "properties": {
        "norad_id": 31024,
        "name": "FENGYUN 1C DEB",
        "group": "fengyun-1c-debris",
        "lat": 80.11292226290345,
        "lon": 161.26935834093513,
        "alt_km": 761.656519542641,
        "timestamp": "2025-12-27T13:34:49.575351+00:00",
        "meta_object_name": "FENGYUN 1C DEB",
        "meta_object_id": "1999-025BDS",
        "meta_epoch": "2025-12-25T12:08:00.060864",
        "meta_mean_motion": 14.20874819,
        "meta_eccentricity": 0.0075452,
        "meta_inclination": 99.0429,
        "meta_ra_of_asc_node": 273.1402,
        "meta_arg_of_pericenter": 88.574,
        "meta_mean_anomaly": 272.4078,
        "meta_ephemeris_type": 0,
        "meta_classification_type": "U",
        "meta_norad_cat_id": 31024,
        "meta_element_set_no": 999,
        "meta_rev_at_epoch": 96885,
        "meta_bstar": 0.00029224,
        "meta_mean_motion_dot": 6.05e-06,
        "meta_mean_motion_ddot": 0,
        "tle_line1": "1 31024U 99025BDS 25359.50555626  .00000605  00000+0  29224-3 0  9995",
        "tle_line2": "2 31024  99.0429 273.1402 0075452  88.5740 272.4078 14.20874819968859"
      },
      "geometry": {
        "type": "Point",
        "coordinates": [
          161.26935834093513,
          80.11292226290345
        ]
      }
    }
  ]
}